STARLINK-1477           
1 45754U 20038AA  26068.63330424  .00035702  00000+0  19315-2 0  9992
2 45754  53.0515 213.2201 0000598  95.7123 264.3937 15.14348726316528
UMBRA-10                
1 60547U 24149CH  26068.82748066  .00020207  00000+0  10903-2 0  9990
2 60547  97.6991 154.5958 0000221 151.0435 209.0808 15.14785965 85670
