[{"OBJECT_NAME":"STARLINK-1477","OBJECT_ID":"2020-038AA","EPOCH":"2026-03-09T15:11:57.486336","MEAN_MOTION":15.14348726,"ECCENTRICITY":5.98e-5,"INCLINATION":53.0515,"RA_OF_ASC_NODE":213.2201,"ARG_OF_PERICENTER":95.7123,"MEAN_ANOMALY":264.3937,"EPHEMERIS_TYPE":0,"CLASSIFICATION_TYPE":"U","NORAD_CAT_ID":45754,"ELEMENT_SET_NO":999,"REV_AT_EPOCH":31652,"BSTAR":0.0019315,"MEAN_MOTION_DOT":0.00035702,"MEAN_MOTION_DDOT":0},{"OBJECT_NAME":"UMBRA-10","OBJECT_ID":"2024-149CH","EPOCH":"2026-03-09T19:51:34.329888","MEAN_MOTION":15.14785965,"ECCENTRICITY":2.209e-5,"INCLINATION":97.6991,"RA_OF_ASC_NODE":154.5958,"ARG_OF_PERICENTER":151.0435,"MEAN_ANOMALY":209.0808,"EPHEMERIS_TYPE":0,"CLASSIFICATION_TYPE":"U","NORAD_CAT_ID":60547,"ELEMENT_SET_NO":999,"REV_AT_EPOCH":8567,"BSTAR":0.0010903051,"MEAN_MOTION_DOT":0.00020207,"MEAN_MOTION_DDOT":0}]
